[{"OBJECT_NAME":"FLOCK 4H-10","OBJECT_ID":"2025-276AZ","EPOCH":"2026-03-09T18:16:56.157312","MEAN_MOTION":15.18574346,"ECCENTRICITY":0.00043041,"INCLINATION":97.4259,"RA_OF_ASC_NODE":143.9692,"ARG_OF_PERICENTER":8.4136,"MEAN_ANOMALY":351.717,"EPHEMERIS_TYPE":0,"CLASSIFICATION_TYPE":"U","NORAD_CAT_ID":66713,"ELEMENT_SET_NO":999,"REV_AT_EPOCH":1532,"BSTAR":0.00041463454,"MEAN_MOTION_DOT":8.509e-5,"MEAN_MOTION_DDOT":0},{"OBJECT_NAME":"OBJECT F","OBJECT_ID":"2026-027F","EPOCH":"2026-03-09T19:49:10.682112","MEAN_MOTION":15.18180546,"ECCENTRICITY":0.00096725,"INCLINATION":97.4922,"RA_OF_ASC_NODE":197.863,"ARG_OF_PERICENTER":203.5802,"MEAN_ANOMALY":156.499,"EPHEMERIS_TYPE":0,"CLASSIFICATION_TYPE":"U","NORAD_CAT_ID":67751,"ELEMENT_SET_NO":999,"REV_AT_EPOCH":388,"BSTAR":0.00022390931,"MEAN_MOTION_DOT":4.513e-5,"MEAN_MOTION_DDOT":0}]
